{"type": "FeatureCollection", "features": [ {"type": "Feature", "properties": {"norad_id": 66911, "name": "1998-067XX", "group": "stations", "lat": 13.668498108306954, "lon": -74.43237507437452, "alt_km": 406.85587024249344, "timestamp": "2025-12-17T21:39:44.513238+00:00", "meta": {"OBJECT_NAME": "1998-067XX", "OBJECT_ID": "1998-067XX", "EPOCH": "2025-12-17T14:47:13.814304", "MEAN_MOTION": 15.52703134, "ECCENTRICITY": 0.00042191, "INCLINATION": 51.6305, "RA_OF_ASC_NODE": 118.1027, "ARG_OF_PERICENTER": 237.6725, "MEAN_ANOMALY": 122.3857, "EPHEMERIS_TYPE": 0, "CLASSIFICATION_TYPE": "U", "NORAD_CAT_ID": 66911, "ELEMENT_SET_NO": 999, "REV_AT_EPOCH": 236, "BSTAR": 0.00097424314, "MEAN_MOTION_DOT": 0.00061259, "MEAN_MOTION_DDOT": 0}, "tle": {"line1": "1 66911U 98067XX  25351.61613211  .00061259  00000+0  97424-3 0  9991", "line2": "2 66911  51.6305 118.1027 0004219 237.6725 122.3857 15.52703134  2363"}}, "geometry": {"type": "Point", "coordinates": [-74.43237507437452, 13.668498108306954]}}, {"type": "Feature", "properties": {"norad_id": 66912, "name": "1998-067XY", "group": "stations", "lat": 41.53095954818147, "lon": -107.80571499911903, "alt_km": 408.0914400037236, "timestamp": "2025-12-17T21:39:44.513248+00:00", "meta": {"OBJECT_NAME": "1998-067XY", "OBJECT_ID": "1998-067XY", "EPOCH": "2025-12-17T14:57:17.441856", "MEAN_MOTION": 15.51610619, "ECCENTRICITY": 0.00041707, "INCLINATION": 51.6305, "RA_OF_ASC_NODE": 118.1486, "ARG_OF_PERICENTER": 250.1115, "MEAN_ANOMALY": 109.9425, "EPHEMERIS_TYPE": 0, "CLASSIFICATION_TYPE": "U", "NORAD_CAT_ID": 66912, "ELEMENT_SET_NO": 999, "REV_AT_EPOCH": 236, "BSTAR": 0.00073122967, "MEAN_MOTION_DOT": 0.00043985, "MEAN_MOTION_DDOT": 0}, "tle": {"line1": "1 66912U 98067XY  25351.62311854  .00043985  00000+0  73123-3 0  9997", "line2": "2 66912  51.6305 118.1486 0004170 250.1115 109.9425 15.51610619  2368"}}, "geometry": {"type": "Point", "coordinates": [-107.80571499911903, 41.53095954818147]}}]}